
STARLINK-32504          
1 62024U 24213S   25065.75210028 -.00002436  00000+0 -50911-4 0  9995
2 62024  53.1597  78.4588 0001356  91.2891 268.8269 15.39628313 16808
STARLINK-32493          
1 62025U 24213T   25065.33012296  .00001450  00000+0  46227-4 0  9995
2 62025  53.1578  80.0892 0001385  86.1162 274.0001 15.39614189 16743
STARLINK-32561          
1 62026U 24213U   25065.45530528 -.00002070  00000+0 -41773-4 0  9994
2 62026  53.1611  79.4465 0001331  82.2503 277.8653 15.39618805 16762
STARLINK-32512          
1 62027U 24213V   25065.32083476 -.00000291  00000+0  26995-5 0  9998
2 62027  53.1598  80.0280 0001431  80.4778 279.6389 15.39614906 16747
GSAT-N2 (GSAT-20)       
1 62028U 24214A   25064.91767617 -.00000027  00000+0  00000+0 0  9990
2 62028   0.0455 265.9383 0000995  37.5083 258.7195  1.00268721  1206
PROGRESS-MS 29          
1 62030U 24215A   25065.79262731  .00012468  00000+0  22778-3 0  9999
2 62030  51.6359  94.1869 0006272 350.9448 346.3820 15.49773953 14104
STARLINK-32637          
1 62032U 24216A   25065.64169450  .00001779  00000+0  49903-4 0  9993
2 62032  43.0032 188.1818 0002029 286.4636  73.5997 15.40672738 17438
STARLINK-32582          
1 62033U 24216B   25065.67290839 -.00000101  00000+0  48605-5 0  9991
2 62033  43.0012 187.5499 0001912 275.3496  84.7142 15.40696851 17445
STARLINK-32615          
1 62034U 24216C   25065.62376513 -.00006717  00000+0 -15360-3 0  9991
2 62034  43.0043 188.0395 0002367 272.2799  87.7786 15.40707436 16277
STARLINK-32592          
1 62035U 24216D   25065.72394112  .00001936  00000+0  53636-4 0  9993
2 62035  43.0057 187.0693 0001659 268.0853  91.9813 15.40687088 17460
STARLINK-32225          
1 62036U 24216E   25065.37341496  .00001396  00000+0  40689-4 0  9996
2 62036  42.9971 189.6001 0001147 286.2265  73.8465 15.40690631 17466
STARLINK-32595          
1 62037U 24216F   25065.66619806  .00000495  00000+0  19144-4 0  9993
2 62037  43.0045 187.4965 0002366 293.2897  66.7711 15.40678998 17455
STARLINK-32477          
1 62038U 24216G   25065.38907069  .00003138  00000+0  82317-4 0  9993
2 62038  43.0061 189.7293 0001958 284.8052  75.2587 15.40712844 16238
STARLINK-32480          
1 62039U 24216H   25065.68188812 -.00000799  00000+0 -11888-4 0  9991
2 62039  43.0035 187.6157 0000876 271.0805  88.9951 15.40667576 16280
STARLINK-32510          
1 62040U 24216J   25065.38633467 -.00006162  00000+0 -14029-3 0  9990
2 62040  42.9933 188.8249 0000184 283.5902  76.4934 15.40720239 17404
STARLINK-32456          
1 62041U 24216K   25065.62823965 -.00004536  00000+0 -10136-3 0  9990
2 62041  43.0013 188.0728 0001333 271.6022  88.4682 15.40704617 17436
STARLINK-32509          
1 62042U 24216L   25065.63721240 -.00001745  00000+0 -34527-4 0  9995
2 62042  43.0033 188.1429 0002156 291.4323  68.6303 15.40686834 17436
STARLINK-32491          
1 62043U 24216M   25065.32825170  .00000007  00000+0  74523-5 0  9998
2 62043  43.0057 189.2557 0002256 289.8530  70.2083 15.40686750 17205
STARLINK-32577          
1 62044U 24216N   25065.73325717  .00003404  00000+0  88771-4 0  9999
2 62044  43.0018 187.1351 0001393 264.0501  96.0197 15.40679075 17468
STARLINK-32618          
1 62045U 24216P   25065.68411320  .00000166  00000+0  11251-4 0  9991
2 62045  43.0022 187.6296 0001952 274.1435  85.9198 15.40691794 17444
STARLINK-32598          
1 62046U 24216Q   25065.63497559 -.00001511  00000+0 -28906-4 0  9997
2 62046  43.0036 188.1260 0002575 282.1878  77.8690 15.40677626 17433
STARLINK-32630          
1 62047U 24216R   25065.40428599  .00001382  00000+0  40355-4 0  9997
2 62047  43.0003 188.9661 0000921 265.4053  94.6698 15.40676606 17402
STARLINK-32599          
1 62048U 24216S   25065.72617193  .00001570  00000+0  44824-4 0  9997
2 62048  43.0011 187.0847 0000113  21.0541 339.0320 15.40707021 17458
STARLINK-32473          
1 62049U 24216T   25065.62152430  .00001886  00000+0  52415-4 0  9990
2 62049  43.0017 188.0223 0001014 274.1174  85.9566 15.40687394 16276
STARLINK-32492          
1 62050U 24216U   25065.67514937  .00000930  00000+0  29529-4 0  9990
2 62050  43.0040 187.5620 0001017 271.8645  88.2095 15.40691186 17446
STARLINK-32496          
1 62051U 24216V   25065.72169765  .00002229  00000+0  60632-4 0  9995
2 62051  43.0040 187.0449 0001275 244.6855 115.3869 15.40689284 17456
STARLINK-32495          
1 62052U 24216W   25065.36668741 -.00003340  00000+0 -72715-4 0  9996
2 62052  43.0014 189.5485 0001435 281.5561  78.5134 15.40708177 17398
STARLINK-32494          
1 62053U 24216X   25065.60584248  .00000159  00000+0  11075-4 0  9998
2 62053  43.0044 187.9003 0001059 255.8411 104.2328 15.40683304 17431
STARLINK-32408          
1 62054U 24216Y   25065.63945467 -.00002944  00000+0 -63242-4 0  9995
2 62054  43.0079 188.1603 0003485 284.0461  76.0008 15.40673808 17443
STARLINK-32571          
1 62055U 24216Z   25065.63050094 -.00001918  00000+0 -38702-4 0  9992
2 62055  43.0061 188.0930 0001415 295.2020  64.8690 15.40675443 17532
STARLINK-11465 [DTC]    
1 62057U 24217A   25065.34536992  .00000468  00000+0  87236-5 0  9993
2 62057  53.1586  86.8630 0001031  72.5810 287.5321 15.69707694 17324
STARLINK-11426 [DTC]    
1 62058U 24217B   25065.34046497  .00000164  00000+0  62175-5 0  9998
2 62058  53.1589  86.8292 0001264  98.4406 261.6755 15.69708749 17267
STARLINK-11454 [DTC]    
1 62059U 24217C   25065.75681744 -.00000511  00000+0  64388-6 0  9990
2 62059  53.1594  85.1729 0001440 104.8397 255.2781 15.69713807 17380
STARLINK-11473 [DTC]    
1 62060U 24217D   25065.32094822 -.00000469  00000+0  99477-6 0  9999
2 62060  53.1574  87.4314 0001544  73.3101 286.8086 15.69703563 17312
STARLINK-11429 [DTC]    
1 62061U 24217E   25065.75190886  .00001437  00000+0  16716-4 0  9992
2 62061  53.1603  85.1409 0001409  94.9949 265.1230 15.69715633 17384
STARLINK-11470 [DTC]    
1 62062U 24217F   25065.74707036 -.00004813  00000+0 -34988-4 0  9997
2 62062  53.1580  85.1010 0001442  46.7011 313.4127 15.69644520 17321
STARLINK-11427 [DTC]    
1 62063U 24217G   25065.31605463 -.00001363  00000+0 -63884-5 0  9997
2 62063  53.1583  87.4010 0001824 107.6468 252.4749 15.69700171 17313
STARLINK-11456 [DTC]    
1 62064U 24217H   25065.47761068  .00001990  00000+0  21281-4 0  9997
2 62064  53.1581  86.2667 0001267 103.4983 256.6176 15.69709790 17343
STARLINK-11474 [DTC]    
1 62065U 24217J   25065.33555989  .00000806  00000+0  11508-4 0  9992
2 62065  53.1581  86.7943 0001156  69.8272 290.2871 15.69709729 17325
STARLINK-11463 [DTC]    
1 62066U 24217K   25065.36009081 -.00000925  00000+0 -27740-5 0  9993
2 62066  53.1587  86.9599 0001519  66.6503 293.4675 15.69706032 17327
STARLINK-11472 [DTC]    
1 62067U 24217L   25065.33075908 -.00001676  00000+0 -89742-5 0  9996
2 62067  53.1588  87.4963 0001338  85.8767 274.2404 15.69706166 17240
STARLINK-11467 [DTC]    
1 62068U 24217M   25065.48252156 -.00000415  00000+0  14301-5 0  9993
2 62068  53.1572  86.2971 0001158  80.1862 279.9287 15.69706417 17345
STARLINK-11460 [DTC]    
1 62069U 24217N   25065.32584864 -.00002268  00000+0 -13847-4 0  9993
2 62069  53.1584  87.4642 0001762 100.6486 259.4730 15.69721686 17259
STARLINK-32604          
1 62070U 24217P   25065.49466480  .00001652  00000+0  51294-4 0  9998
2 62070  53.1603 105.9274 0001725  94.6504 265.4698 15.39605242 17023
STARLINK-32553          
1 62071U 24217Q   25065.38340397 -.00000479  00000+0 -20094-5 0  9998
2 62071  53.1594 106.6553 0001106  96.9493 263.1638 15.39614891 17058
STARLINK-32603          
1 62072U 24217R   25065.41050818  .00001401  00000+0  45027-4 0  9995
2 62072  53.1599 106.1133 0001610  81.8507 278.2680 15.39610701 17063
STARLINK-32444          
1 62073U 24217S   25065.39733725  .00001969  00000+0  59210-4 0  9996
2 62073  53.1590 106.7628 0001509  67.5343 292.5822 15.39612944 17008
STARLINK-32619          
1 62074U 24217T   25065.48471666  .00003867  00000+0  10663-3 0  9997
2 62074  53.1589 105.8645 0001618  96.5033 263.6156 15.39615772 17028
STARLINK-32580          
1 62075U 24217U   25065.37411926  .00000611  00000+0  25263-4 0  9996
2 62075  53.1608 106.5993 0001591  89.5469 270.5718 15.39608827 17002
STARLINK-32617          
1 62076U 24217V   25065.50860316  .00005335  00000+0  14320-3 0  9992
2 62076  53.1588 106.0140 0001894  91.4918 268.6304 15.39634672 17024
SZ-18 MODULE            
1 62077U 24078F   25065.69371774  .00079152  00000+0  46168-3 0  9996
2 62077  41.4739 274.6324 0013025 272.2078  87.7275 15.77285411 19062
SUPERVIEW NEO-2 03      
1 62079U 24218B   25065.62773631  .00012001  00000+0  56436-3 0  9994
2 62079  97.4400  74.6495 0001698  89.0508 271.0921 15.19722954 15439
SUPERVIEW NEO-2 04      
1 62080U 24218C   25065.62773502  .00005011  00000+0  23772-3 0  9993
2 62080  97.4406  74.6536 0001406 117.2768 242.8610 15.19721697 15436
KINEIS-5C               
1 62081U 24219A   25065.68959324  .00002560  00000+0  41336-3 0  9991
2 62081  97.9584 229.0039 0002459  83.3945 276.7542 14.72235437 14969
KINEIS-5D               
1 62082U 24219B   25065.73068945  .00002531  00000+0  39393-3 0  9996
2 62082  97.9583 229.1047 0002512  74.7556 285.3930 14.73855459 14972
KINEIS-5E               
1 62083U 24219C   25065.73044166  .00002616  00000+0  40859-3 0  9999
2 62083  97.9580 229.1045 0001491  84.2758 275.8620 14.73669927 14976
KINEIS-5A               
1 62084U 24219D   25065.70573227  .00002659  00000+0  42103-3 0  9993
2 62084  97.9586 229.1390 0002143  28.8282 331.3044 14.73055868 14978
KINEIS-5B               
1 62085U 24219E   25065.73414021  .00002925  00000+0  42889-3 0  9990
2 62085  97.9579 229.2549 0001389   8.4220 351.7013 14.76321043 14982
